{"features": [{"geometry": {"coordinates": [-66.1839, 18.3666], "type": "Point"}, "properties": {"address": "Pr 167 , Pr 199", "city": "Bayamon", "phone_number": "787-730-2500", "state": "Puerto Rico", "zip": "00957"}, "type": "Feature"}, {"geometry": {"coordinates": [-66.1123, 18.3591], "type": "Point"}, "properties": {"address": "Pr20 , Esmeralda", "city": "Guaynabo", "phone_number": "787-287-9797", "state": "Puerto Rico", "zip": "00970"}, "type": "Feature"}, {"geometry": {"coordinates": [-66.0623, 18.4191], "type": "Point"}, "properties": {"address": "Calle Kalaf 525", "city": "Hato Rey", "phone_number": "787-282-2280", "state": "Puerto Rico", "zip": "00918"}, "type": "Feature"}, {"geometry": {"coordinates": [-67.3034, 18.213], "type": "Point"}, "properties": {"address": "Pr Route 2 Km 149.5", "city": "Mayaguez", "phone_number": "787-265-4500", "state": "Puerto Rico", "zip": "00680"}, "type": "Feature"}, {"geometry": {"coordinates": [-66.640919, 17.99238], "type": "Point"}, "properties": {"address": "2643 Ponce Bypass", "city": "Ponce", "phone_number": "787-812-1610", "state": "Puerto Rico", "zip": "00728"}, "type": "Feature"}, {"geometry": {"coordinates": [-66.0628, 18.3694], "type": "Point"}, "properties": {"address": "9410 Avenue Los Rome", "city": "Rio Piedra", "phone_number": "787-720-5377", "state": "Puerto Rico", "zip": "00926"}, "type": "Feature"}, {"geometry": {"coordinates": [-77.33682, 42.34173], "type": "Point"}, "properties": {"address": "420 West Morris St", "city": "Bath", "phone_number": "607-776-4117", "state": "New York", "zip": "14810"}, "type": "Feature"}, {"geometry": {"coordinates": [-72.310982, 40.933911], "type": "Point"}, "properties": {"address": "2044 Montauk Highway", "city": "Bridgehampton", "phone_number": "631-537-6449", "state": "New York", "zip": "11932"}, "type": "Feature"}, {"geometry": {"coordinates": [-73.856765, 40.825885], "type": "Point"}, "properties": {"address": "1998 Bruckner Blvd", "city": "Bronx", "phone_number": "718-430-9439", "state": "New York", "zip": "10473"}, "type": "Feature"}, {"geometry": {"coordinates": [-73.830834, 40.867034], "type": "Point"}, "properties": {"address": "300 Baychester Ave", "city": "Bronx", "phone_number": "718-671-5377", "state": "New York", "zip": "10475"}, "type": "Feature"}, {"geometry": {"coordinates": [-73.99152, 40.730604], "type": "Point"}, "properties": {"address": "770 Broadway", "city": "New York", "phone_number": "212-673-1540", "state": "New York", "zip": "10003"}, "type": "Feature"}, {"geometry": {"coordinates": [-73.782072, 41.038218], "type": "Point"}, "properties": {"address": "399 Tarrytown Road", "city": "White Plains", "phone_number": "914-684-1184", "state": "New York", "zip": "10607"}, "type": "Feature"}, {"geometry": {"coordinates": [-82.992921, 35.509814], "type": "Point"}, "properties": {"address": "1209 Russ Avenue", "city": "Waynesville", "phone_number": "828-452-0384", "state": "North Carolina", "zip": "28786"}, "type": "Feature"}, {"geometry": {"coordinates": [-74.277, 40.574895], "type": "Point"}, "properties": {"address": "1550 St George Ave", "city": "Avenel", "phone_number": "732-574-3500", "state": "New Jersey", "zip": "07001"}, "type": "Feature"}, {"geometry": {"coordinates": [-74.143968, 40.794155], "type": "Point"}, "properties": {"address": "371 411 Main Street", "city": "Belleville", "phone_number": "973-751-3331", "state": "New Jersey", "zip": "07109"}, "type": "Feature"}, {"geometry": {"coordinates": [-74.160368, 40.75989], "type": "Point"}, "properties": {"address": "200 Passaic Ave", "city": "Kearny", "phone_number": "201-997-9300", "state": "New Jersey", "zip": "07032"}, "type": "Feature"}, {"geometry": {"coordinates": [-74.023243, 40.172415], "type": "Point"}, "properties": {"address": "1825 Highway 35", "city": "Wall", "phone_number": "732-280-8010", "state": "New Jersey", "zip": "07719"}, "type": "Feature"}, {"geometry": {"coordinates": [-74.031957, 40.990076], "type": "Point"}, "properties": {"address": "700 Broadway", "city": "Westwood", "phone_number": "201-666-6501", "state": "New Jersey", "zip": "07675"}, "type": "Feature"}, {"geometry": {"coordinates": [-114.15705, 46.257791], "type": "Point"}, "properties": {"address": "1235 North First Str", "city": "Hamilton", "phone_number": "406-363-2922", "state": "Montana", "zip": "59840"}, "type": "Feature"}, {"geometry": {"coordinates": [-72.310656, 43.643662], "type": "Point"}, "properties": {"address": "Rte 12 A", "city": "West Lebanon", "phone_number": "603-298-5915", "state": "New Hampshire", "zip": "03784"}, "type": "Feature"}, {"geometry": {"coordinates": [-80.160044, 26.045438], "type": "Point"}, "properties": {"address": "3800 Oakwood Blvd", "city": "Hollywood", "phone_number": "954-922-7686", "state": "Florida", "zip": "33020"}, "type": "Feature"}, {"geometry": {"coordinates": [-80.42192, 25.11453], "type": "Point"}, "properties": {"address": "101499 Overseas High", "city": "Key Largo", "phone_number": "305-451-5017", "state": "Florida", "zip": "33037"}, "type": "Feature"}, {"geometry": {"coordinates": [-81.772593, 24.565853], "type": "Point"}, "properties": {"address": "2928 North Roosevelt", "city": "Key West", "phone_number": "305-293-9211", "state": "Florida", "zip": "33040"}, "type": "Feature"}, {"geometry": {"coordinates": [-81.074595, 24.715222], "type": "Point"}, "properties": {"address": "5561 Overseas Hwy", "city": "Marathon", "phone_number": "305-743-9434", "state": "Florida", "zip": "33050"}, "type": "Feature"}, {"geometry": {"coordinates": [-80.422095, 25.687081], "type": "Point"}, "properties": {"address": "14091 Sw 88th St", "city": "Miami", "phone_number": "305-385-5970", "state": "Florida", "zip": "33186"}, "type": "Feature"}, {"geometry": {"coordinates": [-101.293353, 48.21094], "type": "Point"}, "properties": {"address": "1 20th Ave Se", "city": "Minot", "phone_number": "701-852-4175", "state": "North Dakota", "zip": "58701"}, "type": "Feature"}, {"geometry": {"coordinates": [-84.928838, 42.275683], "type": "Point"}, "properties": {"address": "15861 Michigan Avenu", "city": "Marshall", "phone_number": "269-781-3333", "state": "Michigan", "zip": "49068"}, "type": "Feature"}, {"geometry": {"coordinates": [-87.615546, 45.104963], "type": "Point"}, "properties": {"address": "1101 7th Ave", "city": "Menominee", "phone_number": "906-863-4461", "state": "Michigan", "zip": "49858"}, "type": "Feature"}, {"geometry": {"coordinates": [-76.45287, 40.996076], "type": "Point"}, "properties": {"address": "3975 Columbia Ave", "city": "Columbia", "phone_number": "717-285-2220", "state": "Pennsylvania", "zip": "17512"}, "type": "Feature"}, {"geometry": {"coordinates": [-75.904613, 41.25642], "type": "Point"}, "properties": {"address": "18 Mark Plaza", "city": "Kingston", "phone_number": "570-288-7501", "state": "Pennsylvania", "zip": "18704"}, "type": "Feature"}, {"geometry": {"coordinates": [-75.59464, 40.761775], "type": "Point"}, "properties": {"address": "400 N Best Ave", "city": "Walnutport", "phone_number": "610-767-1812", "state": "Pennsylvania", "zip": "18088"}, "type": "Feature"}, {"geometry": {"coordinates": [-76.345785, 40.098846], "type": "Point"}, "properties": {"address": "2600 North Willow St", "city": "Willow Street", "phone_number": "717-464-4015", "state": "Pennsylvania", "zip": "17584"}, "type": "Feature"}, {"geometry": {"coordinates": [-76.562748, 38.941571], "type": "Point"}, "properties": {"address": "3255 Solomons Island Rd", "city": "Edgewater", "phone_number": "410-956-0056", "state": "Maryland", "zip": "21037"}, "type": "Feature"}, {"geometry": {"coordinates": [-77.077127, 39.084077], "type": "Point"}, "properties": {"address": "14014 Connecticut Av", "city": "Silver Spring", "phone_number": "301-871-6640", "state": "Maryland", "zip": "20906"}, "type": "Feature"}, {"geometry": {"coordinates": [-116.88368, 34.247378], "type": "Point"}, "properties": {"address": "42126 Big Bear Blvd", "city": "Big Bear Lake", "phone_number": "909-866-9200", "state": "California", "zip": "92315"}, "type": "Feature"}, {"geometry": {"coordinates": [-117.916854, 33.655387], "type": "Point"}, "properties": {"address": "2200 Harbor Blvd", "city": "Costa Mesa", "phone_number": "949-646-7701", "state": "California", "zip": "92627"}, "type": "Feature"}, {"geometry": {"coordinates": [-121.769904, 36.934126], "type": "Point"}, "properties": {"address": "1702 Freedom Blvd", "city": "Freedom", "phone_number": "831-728-9771", "state": "California", "zip": "95019"}, "type": "Feature"}, {"geometry": {"coordinates": [-121.060469, 39.199809], "type": "Point"}, "properties": {"address": "111 W Mc Knight Way", "city": "Grass Valley", "phone_number": "530-272-9611", "state": "California", "zip": "95949"}, "type": "Feature"}, {"geometry": {"coordinates": [-118.121868, 33.809177], "type": "Point"}, "properties": {"address": "2900 Bellflower Blvd", "city": "Long Beach", "phone_number": "562-377-0618", "state": "California", "zip": "90815"}, "type": "Feature"}, {"geometry": {"coordinates": [-124.101982, 40.931071], "type": "Point"}, "properties": {"address": "1500 Anna Sparks Way", "city": "Mckinleyville", "phone_number": "707-839-5063", "state": "California", "zip": "95521"}, "type": "Feature"}, {"geometry": {"coordinates": [-116.883042, 33.035184], "type": "Point"}, "properties": {"address": "1855 Main Street", "city": "Ramona", "phone_number": "760-788-7886", "state": "California", "zip": "92065"}, "type": "Feature"}, {"geometry": {"coordinates": [-120.004074, 38.91224], "type": "Point"}, "properties": {"address": "1056 Emerald Bay Roa", "city": "South Lake Tahoe", "phone_number": "530-541-8971", "state": "California", "zip": "96150"}, "type": "Feature"}, {"geometry": {"coordinates": [-64.5, 18.5], "type": "Point"}, "properties": {"address": "Space 1", "city": "St Croix", "phone_number": "340-719-9190", "state": "Virgin Islands", "zip": "00820"}, "type": "Feature"}, {"geometry": {"coordinates": [-64.5, 18.5], "type": "Point"}, "properties": {"address": "Remainder Matriculat", "city": "St Croix", "phone_number": "340-692-5848", "state": "Virgin Islands", "zip": "00840"}, "type": "Feature"}, {"geometry": {"coordinates": [-64.5, 18.5], "type": "Point"}, "properties": {"address": "3 10 St Estate Thoma", "city": "St Thomas", "phone_number": "340-774-4046", "state": "Virgin Islands", "zip": "00802"}, "type": "Feature"}, {"geometry": {"coordinates": [-64.932789, 18.341137], "type": "Point"}, "properties": {"address": "Charlotte Amalie", "city": "St Thomas", "phone_number": "340-777-3853", "state": "Virgin Islands", "zip": "00802"}, "type": "Feature"}, {"geometry": {"coordinates": [-76.258347, 36.783377], "type": "Point"}, "properties": {"address": "2001 South Military", "city": "Chesapeake", "phone_number": "757-543-2016", "state": "Virginia", "zip": "23320"}, "type": "Feature"}, {"geometry": {"coordinates": [144.7863, 13.4443], "type": "Point"}, "properties": {"address": "404 N Marine Dr", "city": "Tamuning", "phone_number": "671-649-9878", "state": "Guam", "zip": "96911"}, "type": "Feature"}, {"geometry": {"coordinates": [-70.293032, 41.668962], "type": "Point"}, "properties": {"address": "768 Iyannough Rd", "city": "Hyannis", "phone_number": "508-771-0012", "state": "Massachusetts", "zip": "02601"}, "type": "Feature"}], "type": "FeatureCollection", "updated": "2020-08-31"}